[{"OBJECT_NAME":"RISING 2","OBJECT_ID":"2014-029D","EPOCH":"2026-03-09T22:49:58.395648","MEAN_MOTION":14.97431818,"ECCENTRICITY":0.00015683,"INCLINATION":97.6622,"RA_OF_ASC_NODE":139.362,"ARG_OF_PERICENTER":264.4485,"MEAN_ANOMALY":95.6558,"EPHEMERIS_TYPE":0,"CLASSIFICATION_TYPE":"U","NORAD_CAT_ID":39769,"ELEMENT_SET_NO":999,"REV_AT_EPOCH":63869,"BSTAR":0.00068568934,"MEAN_MOTION_DOT":7.926e-5,"MEAN_MOTION_DDOT":0},{"OBJECT_NAME":"STARLINK-32912","OBJECT_ID":"2025-037M","EPOCH":"2026-03-09T22:33:46.780128","MEAN_MOTION":14.98375815,"ECCENTRICITY":0.00031393,"INCLINATION":70.0026,"RA_OF_ASC_NODE":353.661,"ARG_OF_PERICENTER":270.3794,"MEAN_ANOMALY":89.7005,"EPHEMERIS_TYPE":0,"CLASSIFICATION_TYPE":"U","NORAD_CAT_ID":63088,"ELEMENT_SET_NO":999,"REV_AT_EPOCH":5874,"BSTAR":0.0025884925,"MEAN_MOTION_DOT":0.00030966,"MEAN_MOTION_DDOT":0}]
